IRIDIUM 39              
1 25042U 97069D   24200.51992757  .00001762  00000+0  46776-3 0  9995
2 25042  86.3935 354.1379 0017624 346.8775  13.1968 14.48074496400651
IRIDIUM 38              
1 25043U 97069E   24200.52881406  .00001195  00000+0  39402-3 0  9993
2 25043  86.3965  13.4896 0003828 101.1881 258.9747 14.37343125398279
IRIDIUM 42              
1 25077U 97077A   24200.54914105  .00001100  00000+0  37490-3 0  9995
2 25077  86.3964  19.2382 0002624  99.0352 261.1142 14.35635327393311
IRIDIUM 44              
1 25078U 97077B   24200.49547929  .00001190  00000+0  37593-3 0  9999
2 25078  86.3970   2.0865 0003643  69.0471 291.1117 14.39482789395713
IRIDIUM 45              
1 25104U 97082A   24200.49332944  .00022290  00000+0  12056-2 0  9994
2 25104  86.3727 207.5429 0159003 124.7317 236.9011 15.04231878401566
IRIDIUM 24              
1 25105U 97082B   24200.54499942  .00001217  00000+0  37034-3 0  9993
2 25105  86.3905 221.5982 0013800  98.7206 261.5557 14.41268785395395
IRIDIUM 51              
1 25262U 98018A   24200.55012394  .00029444  00000+0  12989-2 0  9993
2 25262  86.3936 217.2394 0143919  67.8934 293.7512 15.12688320396155
